FENGYUN 3D              
1 43010U 17072A   26156.23711015  .00000082  00000+0  60372-4 0  9996
2 43010  99.0125 130.4440 0002656  80.2024 279.9451 14.19737166443291
NOAA 20 (JPSS-1)        
1 43013U 17073A   26156.30058722  .00000070  00000+0  54120-4 0  9998
2 43013  98.7769  95.8690 0000599  37.8823 322.2395 14.19509431442788
GOES 17                 
1 43226U 18022A   26156.24641809 -.00000170  00000+0  00000+0 0  9991
2 43226   0.9070  85.9318 0000731   8.3901 158.5810  1.00271435 30308
SENTINEL-3B             
1 43437U 18039A   26156.05723893  .00000127  00000+0  70354-4 0  9991
2 43437  98.6250 223.7630 0000929  75.6740 284.4543 14.26738213422392
FENGYUN 2H              
1 43491U 18050A   26156.07985617 -.00000119  00000+0  00000+0 0  9998
2 43491   3.0002  79.2144 0001424 127.3190 155.1892  1.00271930 29318
METOP-C                 
1 43689U 18087A   26156.17256321  .00000107  00000+0  68636-4 0  9991
2 43689  98.6648 215.9953 0001297 142.6213 217.5055 14.21508767393129
GEO-KOMPSAT-2A          
1 43823U 18100A   26155.72968678 -.00000332  00000+0  00000+0 0  9999
2 43823   0.0505 138.9461 0002314 305.7918 199.3806  1.00269705 27507
METEOR-M2 2             
1 44387U 19038A   26156.23256656  .00000160  00000+0  89142-4 0  9996
2 44387  98.9142 143.3419 0002347  65.3086 294.8337 14.24362853359595
ARKTIKA-M 1             
1 47719U 21016A   26153.03917935 -.00000200  00000+0  00000+0 0  9993
2 47719  63.2379  59.8266 7283239 269.8643  14.6915  2.00628509 38489
FENGYUN 3E              
1 49008U 21062A   26156.29278044 -.00000131  00000+0 -41075-4 0  9995
2 49008  98.7490 159.8334 0002647 104.4607 255.6863 14.19902448254899
GOES 18                 
1 51850U 22021A   26156.29940366  .00000109  00000+0  00000+0 0  9993
2 51850   0.0404 134.1691 0000601 349.6511 100.6985  1.00271934  6473
NOAA 21 (JPSS-2)        
1 54234U 22150A   26156.26343854  .00000063  00000+0  50477-4 0  9998
2 54234  98.7057  95.2530 0000983 184.7974 175.3193 14.19563247184857
METEOSAT-12 (MTG-I1)    
1 54743U 22170C   26156.27791356  .00000004  00000+0  00000+0 0  9997
2 54743   0.7250  20.9289 0003561  69.7526 262.6569  1.00271490 12855
TIANMU-1 03             
1 55973U 23039A   26156.27866685  .00014895  00000+0  29739-3 0  9993
2 55973  97.5234 329.7850 0004034 128.3049 231.8564 15.46929923178996
TIANMU-1 04             
1 55974U 23039B   26156.27269602  .00015154  00000+0  29645-3 0  9995
2 55974  97.5171 328.9319 0004727 126.1859 233.9828 15.47514479179008
TIANMU-1 05             
1 55975U 23039C   26156.25886306  .00014118  00000+0  28271-3 0  9993
2 55975  97.5218 329.3837 0003602 143.8972 216.2521 15.46857851178976
TIANMU-1 06             
1 55976U 23039D   26156.27535287  .00015001  00000+0  29445-3 0  9991
2 55976  97.5223 330.0247 0003950 140.0471 220.1070 15.47423271179000
FENGYUN 3G              
1 56232U 23055A   26156.26805137  .00023257  00000+0  35521-3 0  9992
2 56232  49.9932  47.4775 0005492 148.4659 211.6639 15.54249362178158
METEOR-M2 3             
1 57166U 23091A   26156.29440118  .00000002  00000+0  19845-4 0  9991
2 57166  98.6086 211.5155 0003669 187.9599 172.1522 14.24045774152822
TIANMU-1 07             
1 57399U 23101A   26156.19497174  .00007817  00000+0  27448-3 0  9992
2 57399  97.2593 207.1398 0003311 147.0096 213.1352 15.29664963159817
TIANMU-1 08             
1 57400U 23101B   26156.22706356  .00006596  00000+0  23196-3 0  9993
2 57400  97.2582 206.9435 0004928 144.7338 215.4230 15.29667771159815
TIANMU-1 09             
1 57401U 23101C   26156.21070350  .00008185  00000+0  28698-3 0  9999
2 57401  97.2539 206.3494 0003662 155.0030 205.1389 15.29696686159813
TIANMU-1 10             
1 57402U 23101D   26156.30894718  .00006562  00000+0  23078-3 0  9996
2 57402  97.2620 207.4836 0005273 158.3319 201.8146 15.29666040159829
FENGYUN 3F              
1 57490U 23111A   26156.27697244  .00000066  00000+0  51433-4 0  9995
2 57490  98.6836 226.5073 0001565 102.1803 257.9549 14.19937043147176
ARKTIKA-M 2             
1 58584U 23198A   26154.30372208  .00000150  00000+0  00000+0 0  9990
2 58584  63.2209 155.9142 6898549 267.4684  18.7857  2.00591941 18047
TIANMU-1 11             
1 58645U 23205A   26156.32312700  .00005815  00000+0  22279-3 0  9991
2 58645  97.3449 178.0672 0010242  54.7187 305.5008 15.26866327135712
TIANMU-1 12             
1 58646U 23205B   26156.29319917  .00005912  00000+0  22683-3 0  9992
2 58646  97.3438 177.7960 0008159  42.6330 317.5540 15.26826795135693
TIANMU-1 13             
1 58647U 23205C   26156.32424794  .00005934  00000+0  22870-3 0  9999
2 58647  97.3465 178.0972 0007368  24.1924 335.9660 15.26682021135695
TIANMU-1 14             
1 58648U 23205D   26156.30980060  .00005639  00000+0  21715-3 0  9990
2 58648  97.3402 177.2742 0008337  27.5337 332.6342 15.26726666135690
TIANMU-1 19             
1 58660U 23208A   26156.26474706  .00008068  00000+0  26865-3 0  9997
2 58660  97.4496 272.5063 0004868  15.8012 344.3380 15.31384935135505
