OBJECT_NAME,OBJECT_ID,EPOCH,MEAN_MOTION,ECCENTRICITY,INCLINATION,RA_OF_ASC_NODE,ARG_OF_PERICENTER,MEAN_ANOMALY,EPHEMERIS_TYPE,CLASSIFICATION_TYPE,NORAD_CAT_ID,ELEMENT_SET_NO,REV_AT_EPOCH,BSTAR,MEAN_MOTION_DOT,MEAN_MOTION_DDOT
FENGYUN 3D,2017-072A,2026-06-05T05:41:26.316960,14.19737166,.00026569,99.0125,130.4440,80.2024,279.9451,0,U,43010,999,44329,.60371724E-4,.82E-6,0
NOAA 20 (JPSS-1),2017-073A,2026-06-05T07:12:50.735808,14.19509431,.00005995,98.7769,95.8690,37.8823,322.2395,0,U,43013,999,44278,.54120372E-4,.7E-6,0
GOES 17,2018-022A,2026-06-05T05:54:50.522976,1.00271435,.00007318,0.9070,85.9318,8.3901,158.5810,0,U,43226,999,3030,0,-.17E-5,0
SENTINEL-3B,2018-039A,2026-06-05T01:22:25.443552,14.26738213,.00009298,98.6250,223.7630,75.6740,284.4543,0,U,43437,999,42239,.70353526E-4,.127E-5,0
FENGYUN 2H,2018-050A,2026-06-05T01:54:59.573088,1.00271930,.00014243,3.0002,79.2144,127.3190,155.1892,0,U,43491,999,2931,0,-.119E-5,0
METOP-C,2018-087A,2026-06-05T04:08:29.461344,14.21508767,.00012974,98.6648,215.9953,142.6213,217.5055,0,U,43689,999,39312,.68635652E-4,.107E-5,0
GEO-KOMPSAT-2A,2018-100A,2026-06-04T17:30:44.937792,1.00269705,.00023147,0.0505,138.9461,305.7918,199.3806,0,U,43823,999,2750,0,-.332E-5,0
METEOR-M2 2,2019-038A,2026-06-05T05:34:53.750784,14.24362853,.00023471,98.9142,143.3419,65.3086,294.8337,0,U,44387,999,35959,.89141679E-4,.16E-5,0
ARKTIKA-M 1,2021-016A,2026-06-02T00:56:25.095840,2.00628509,.72832396,63.2379,59.8266,269.8643,14.6915,0,U,47719,999,3848,0,-.2E-5,0
FENGYUN 3E,2021-062A,2026-06-05T07:01:36.230016,14.19902448,.00026479,98.7490,159.8334,104.4607,255.6863,0,U,49008,999,25489,-.41075497E-4,-.131E-5,0
GOES 18,2022-021A,2026-06-05T07:11:08.476224,1.00271934,.00006012,0.0404,134.1691,349.6511,100.6985,0,U,51850,999,647,0,.109E-5,0
NOAA 21 (JPSS-2),2022-150A,2026-06-05T06:19:21.089856,14.19563247,.00009838,98.7057,95.2530,184.7974,175.3193,0,U,54234,999,18485,.504768E-4,.63E-6,0
METEOSAT-12 (MTG-I1),2022-170C,2026-06-05T06:40:11.731584,1.00271490,.00035612,0.7250,20.9289,69.7526,262.6569,0,U,54743,999,1285,0,.4E-7,0
TIANMU-1 03,2023-039A,2026-06-05T06:41:16.815840,15.46929923,.00040346,97.5234,329.7850,128.3049,231.8564,0,U,55973,999,17899,.29739159E-3,.14895E-3,0
TIANMU-1 04,2023-039B,2026-06-05T06:32:40.936128,15.47514479,.00047271,97.5171,328.9319,126.1859,233.9828,0,U,55974,999,17900,.29645259E-3,.15154E-3,0
TIANMU-1 05,2023-039C,2026-06-05T06:12:45.768384,15.46857851,.00036024,97.5218,329.3837,143.8972,216.2521,0,U,55975,999,17897,.28270746E-3,.14118E-3,0
TIANMU-1 06,2023-039D,2026-06-05T06:36:30.487968,15.47423271,.00039505,97.5223,330.0247,140.0471,220.1070,0,U,55976,999,17900,.29445403E-3,.15001E-3,0
FENGYUN 3G,2023-055A,2026-06-05T06:25:59.638368,15.54249362,.00054924,49.9932,47.4775,148.4659,211.6639,0,U,56232,999,17815,.35520663E-3,.23257E-3,0
METEOR-M2 3,2023-091A,2026-06-05T07:03:56.261952,14.24045774,.00036691,98.6086,211.5155,187.9599,172.1522,0,U,57166,999,15282,.1984464E-4,.2E-7,0
TIANMU-1 07,2023-101A,2026-06-05T04:40:45.558336,15.29664963,.00033113,97.2593,207.1398,147.0096,213.1352,0,U,57399,999,15981,.27447556E-3,.7817E-4,0
TIANMU-1 08,2023-101B,2026-06-05T05:26:58.291584,15.29667771,.00049289,97.2582,206.9435,144.7338,215.4230,0,U,57400,999,15981,.23195778E-3,.6596E-4,0
TIANMU-1 09,2023-101C,2026-06-05T05:03:24.782400,15.29696686,.00036624,97.2539,206.3494,155.0030,205.1389,0,U,57401,999,15981,.28697768E-3,.8185E-4,0
TIANMU-1 10,2023-101D,2026-06-05T07:24:53.036352,15.29666040,.0005273,97.2620,207.4836,158.3319,201.8146,0,U,57402,999,15982,.23078406E-3,.6562E-4,0
FENGYUN 3F,2023-111A,2026-06-05T06:38:50.418816,14.19937043,.00015657,98.6836,226.5073,102.1803,257.9549,0,U,57490,999,14717,.51433077E-4,.66E-6,0
ARKTIKA-M 2,2023-198A,2026-06-03T07:17:21.587712,2.00591941,.68985494,63.2209,155.9142,267.4684,18.7857,0,U,58584,999,1804,0,.15E-5,0
TIANMU-1 11,2023-205A,2026-06-05T07:45:18.172800,15.26866327,.00102422,97.3449,178.0672,54.7187,305.5008,0,U,58645,999,13571,.22278669E-3,.5815E-4,0
TIANMU-1 12,2023-205B,2026-06-05T07:02:12.408288,15.26826795,.00081592,97.3438,177.7960,42.6330,317.5540,0,U,58646,999,13569,.22682748E-3,.5912E-4,0
TIANMU-1 13,2023-205C,2026-06-05T07:46:55.022016,15.26682021,.00073682,97.3465,178.0972,24.1924,335.9660,0,U,58647,999,13569,.22870269E-3,.5934E-4,0
TIANMU-1 14,2023-205D,2026-06-05T07:26:06.771840,15.26726666,.00083379,97.3402,177.2742,27.5337,332.6342,0,U,58648,999,13569,.2171486E-3,.5639E-4,0
TIANMU-1 19,2023-208A,2026-06-05T06:21:14.145984,15.31384935,.00048686,97.4496,272.5063,15.8012,344.3380,0,U,58660,999,13550,.26865341E-3,.8068E-4,0
